NORAD_CAT_ID,OBJECT_NAME,OBJECT_TYPE,EPOCH,MEAN_MOTION,ECCENTRICITY,INCLINATION,RA_OF_ASC_NODE,ARG_OF_PERICENTER,MEAN_ANOMALY,BSTAR,MEAN_MOTION_DOT,MEAN_MOTION_DDOT,TLE_LINE0,TLE_LINE1,TLE_LINE2,SEMIMAJOR_AXIS,PERIOD,APOGEE,PERIGEE,DECAYED
55425.0,STARLINK-5615,PAYLOAD,2023-10-21 21:21:02,14.98349069,0.0002949,69.9978,117.5715,269.757,90.3251,0.00011307,1.257e-05,0.0,0 STARLINK-5615,1 55425U 23014AL  23294.88961445  .00001257  00000-0  11307-3 0  9996,2 55425  69.9978 117.5715 0002949 269.7570  90.3251 14.98349069 41275,6950.134,96.106,574.049,569.949,0.0
55425.0,STARLINK-5615,PAYLOAD,2023-10-22 11:46:15,14.98341595,0.0002563,69.9984,116.0558,277.2512,82.8355,-5.283e-05,-7.23e-06,0.0,0 STARLINK-5615,1 55425U 23014AL  23295.49046013 -.00000723  00000-0 -52830-4 0  9995,2 55425  69.9984 116.0558 0002563 277.2512  82.8355 14.98341595 40426,6950.157,96.106,573.803,570.241,0.0
55425.0,STARLINK-5615,PAYLOAD,2023-10-22 13:22:23,14.98340823,0.0002852,69.9972,115.8875,275.0371,85.0462,-9.9947e-05,-1.286e-05,0.0,0 STARLINK-5615,1 55425U 23014AL  23295.55722069 -.00001286  00000-0 -99947-4 0  9999,2 55425  69.9972 115.8875 0002852 275.0371  85.0462 14.98340823 41374,6950.159,96.106,574.007,570.042,0.0
55425.0,STARLINK-5615,PAYLOAD,2023-10-22 19:46:56,14.98333899,0.0002962,69.9979,115.2155,272.0634,88.0186,-0.00011847,-1.506e-05,0.0,0 STARLINK-5615,1 55425U 23014AL  23295.82426371 -.00001506  00000-0 -11847-3 0  9993,2 55425  69.9979 115.2155 0002962 272.0634  88.0186 14.98333899 40478,6950.181,96.107,574.104,569.987,0.0
55425.0,STARLINK-5615,PAYLOAD,2023-10-22 21:23:04,14.983341,0.0002901,69.9979,115.0467,272.7566,87.3261,-0.00010778,-1.379e-05,0.0,0 STARLINK-5615,1 55425U 23014AL  23295.89102328 -.00001379  00000-0 -10778-3 0  9993,2 55425  69.9979 115.0467 0002901 272.7566  87.3261 14.98334100 41424,6950.18,96.107,574.061,570.029,0.0
55425.0,STARLINK-5615,PAYLOAD,2023-10-23 18:12:48,14.98344004,0.0002938,69.9979,112.8587,273.2832,86.7991,-3.7967e-05,-5.46e-06,0.0,0 STARLINK-5615,1 55425U 23014AL  23296.75888995 -.00000546  00000-0 -37967-4 0  9995,2 55425  69.9979 112.8587 0002938 273.2832  86.7991 14.98344004 40611,6950.15,96.106,574.057,569.973,0.0
55425.0,STARLINK-5615,PAYLOAD,2023-10-23 21:25:03,14.98347595,0.0002875,69.9979,112.5223,275.2099,84.8732,2.4382e-05,1.98e-06,0.0,0 STARLINK-5615,1 55425U 23014AL  23296.89240501  .00000198  00000-0  24382-4 0  9993,2 55425  69.9979 112.5223 0002875 275.2099  84.8732 14.98347595 41578,6950.138,96.106,574.002,570.005,0.0
55425.0,STARLINK-5615,PAYLOAD,2023-10-24 11:50:17,14.98326924,0.0002759,69.9984,111.0065,274.7278,85.3566,-3.2443e-06,-1.32e-06,0.0,0 STARLINK-5615,1 55425U 23014AL  23297.49325581 -.00000132  00000-0 -32443-5 0  9990,2 55425  69.9984 111.0065 0002759 274.7278  85.3566 14.98326924 41660,6950.202,96.107,573.985,570.15,0.0
55425.0,STARLINK-5615,PAYLOAD,2023-10-25 15:04:34,14.98336794,0.0002626,69.9993,108.1449,276.0132,84.0728,-0.000122,-1.549e-05,0.0,0 STARLINK-5615,1 55425U 23014AL  23298.62817404 -.00001549  00000-0 -12200-3 0  9996,2 55425  69.9993 108.1449 0002626 276.0132  84.0728 14.98336794 40896,6950.172,96.107,573.862,570.212,0.0
55425.0,STARLINK-5615,PAYLOAD,2023-10-25 21:29:06,14.98338452,0.000285,69.9989,107.4716,272.649,87.4343,-0.00012342,-1.566e-05,0.0,0 STARLINK-5615,1 55425U 23014AL  23298.89521193 -.00001566  00000-0 -12342-3 0  9998,2 55425  69.9989 107.4716 0002850 272.6490  87.4343 14.98338452 41870,6950.167,96.106,574.013,570.051,0.0
55425.0,STARLINK-5615,PAYLOAD,2023-10-26 13:30:27,14.98327477,0.0002951,69.9989,105.7883,272.7087,87.3734,3.1071e-05,2.78e-06,0.0,0 STARLINK-5615,1 55425U 23014AL  23299.56281363  .00000278  00000-0  31071-4 0  9993,2 55425  69.9989 105.7883 0002951 272.7087  87.3734 14.98327477 41970,6950.201,96.107,574.117,570.015,0.0
55425.0,STARLINK-5615,PAYLOAD,2023-10-26 18:18:51,14.98329327,0.0002941,69.9989,105.2833,272.7901,87.2921,4.9459e-05,4.97e-06,0.0,0 STARLINK-5615,1 55425U 23014AL  23299.76309213  .00000497  00000-0  49459-4 0  9992,2 55425  69.9989 105.2833 0002941 272.7901  87.2921 14.98329327 41067,6950.195,96.107,574.104,570.016,0.0
55425.0,STARLINK-5615,PAYLOAD,2023-10-26 21:31:07,14.98329276,0.0002938,69.9989,104.9467,272.8397,87.2426,4.6815e-05,4.66e-06,0.0,0 STARLINK-5615,1 55425U 23014AL  23299.89661225  .00000466  00000-0  46815-4 0  9999,2 55425  69.9989 104.9467 0002938 272.8397  87.2426 14.98329276 42022,6950.195,96.107,574.102,570.018,0.0
55425.0,STARLINK-5615,PAYLOAD,2023-10-27 11:56:19,14.98331339,0.0002909,69.999,103.4318,272.963,87.1196,8.9743e-06,1.4e-07,0.0,0 STARLINK-5615,1 55425U 23014AL  23300.49745191  .00000014  00000-0  89743-5 0  9990,2 55425  69.9990 103.4318 0002909 272.9630  87.1196 14.98331339 42118,6950.189,96.107,574.076,570.032,0.0
55425.0,STARLINK-5615,PAYLOAD,2023-10-27 21:33:08,14.98332386,0.0002894,69.9991,102.4217,273.7297,86.3531,2.7601e-05,2.36e-06,0.0,0 STARLINK-5615,1 55425U 23014AL  23300.89801018  .00000236  00000-0  27601-4 0  9995,2 55425  69.9991 102.4217 0002894 273.7297  86.3531 14.98332386 42170,6950.186,96.107,574.062,570.039,0.0
55425.0,STARLINK-5615,PAYLOAD,2023-10-28 13:34:29,14.98327327,0.0002856,69.9988,100.7385,272.0283,88.0549,-3.7005e-05,-5.34e-06,0.0,0 STARLINK-5615,1 55425U 23014AL  23301.56561501 -.00000534  00000-0 -37005-4 0  9992,2 55425  69.9988 100.7385 0002856 272.0283  88.0549 14.98327327 42276,6950.201,96.107,574.051,570.081,0.0
55425.0,STARLINK-5615,PAYLOAD,2023-10-28 19:59:01,14.9832728,0.000286,69.9989,100.0655,269.8011,90.282,-3.445e-05,-5.04e-06,0.0,0 STARLINK-5615,1 55425U 23014AL  23301.83265504 -.00000504  00000-0 -34450-4 0  9994,2 55425  69.9989 100.0655 0002860 269.8011  90.2820 14.98327280 41373,6950.201,96.107,574.054,570.079,0.0
55425.0,STARLINK-5615,PAYLOAD,2023-10-29 12:00:21,14.98333969,0.000289,69.9989,98.3821,269.3152,90.7676,3.0179e-05,2.67e-06,0.0,0 STARLINK-5615,1 55425U 23014AL  23302.50024862  .00000267  00000-0  30179-4 0  9997,2 55425  69.9989  98.3821 0002890 269.3152  90.7676 14.98333969 41477,6950.181,96.107,574.054,570.037,0.0
55425.0,STARLINK-5615,PAYLOAD,2023-10-29 13:36:29,14.98334367,0.0002873,69.9989,98.2137,271.0265,89.0565,-6.3235e-07,-1.01e-06,0.0,0 STARLINK-5615,1 55425U 23014AL  23302.56700916 -.00000101  00000-0 -63235-6 0  9994,2 55425  69.9989  98.2137 0002873 271.0265  89.0565 14.98334367 42429,6950.179,96.107,574.041,570.048,0.0
55425.0,STARLINK-5615,PAYLOAD,2023-10-29 18:24:52,14.98346651,0.0003232,69.9983,97.7066,267.162,92.9169,0.00013478,1.516e-05,0.0,0 STARLINK-5615,1 55425U 23014AL  23302.76727673  .00001516  00000-0  13478-3 0  9995,2 55425  69.9983  97.7066 0003232 267.1620  92.9169 14.98346651 41510,6950.141,96.106,574.253,569.76,0.0
55425.0,STARLINK-5615,PAYLOAD,2023-10-29 20:01:01,14.98336777,0.0003415,69.9984,97.5394,263.8656,96.2114,6.7904e-05,7.17e-06,0.0,0 STARLINK-5615,1 55425U 23014AL  23302.83404264  .00000717  00000-0  67904-4 0  9997,2 55425  69.9984  97.5394 0003415 263.8656  96.2114 14.98336777 42468,6950.172,96.107,574.41,569.663,0.0
55425.0,STARLINK-5615,PAYLOAD,2023-10-30 12:02:23,14.98322085,0.0003025,69.999,95.8563,271.2566,88.8246,-1.1046e-05,-2.25e-06,0.0,0 STARLINK-5615,1 55425U 23014AL  23303.50165542 -.00000225  00000-0 -11046-4 0  9997,2 55425  69.9990  95.8563 0003025 271.2566  88.8246 14.98322085 41621,6950.217,96.108,574.185,569.98,0.0
55425.0,STARLINK-5615,PAYLOAD,2023-10-30 20:03:03,14.98326866,0.0003045,69.9989,95.0152,271.3554,88.7256,3.2605e-06,-5.4e-07,0.0,0 STARLINK-5615,1 55425U 23014AL  23303.83545272 -.00000054  00000-0  32605-5 0  9999,2 55425  69.9989  95.0152 0003045 271.3554  88.7256 14.98326866 42616,6950.203,96.107,574.184,569.951,0.0
55425.0,STARLINK-5615,PAYLOAD,2023-10-31 12:04:23,14.98330517,0.000308,69.9992,93.3319,271.4727,88.6079,-2.0501e-05,-3.38e-06,0.0,0 STARLINK-5615,1 55425U 23014AL  23304.50305157 -.00000338  00000-0 -20501-4 0  9997,2 55425  69.9992  93.3319 0003080 271.4727  88.6079 14.98330517 41774,6950.191,96.107,574.197,569.916,0.0
55425.0,STARLINK-5615,PAYLOAD,2023-10-31 13:40:31,14.98332358,0.000302,69.9991,93.1636,272.1451,87.9362,-5.4753e-05,-7.46e-06,0.0,0 STARLINK-5615,1 55425U 23014AL  23304.56981126 -.00000746  00000-0 -54753-4 0  9998,2 55425  69.9991  93.1636 0003020 272.1451  87.9362 14.98332358 42727,6950.186,96.107,574.15,569.952,0.0
55425.0,STARLINK-5615,PAYLOAD,2023-10-31 20:05:03,14.98334608,0.0003098,69.9993,92.4903,271.8368,88.2436,7.7538e-07,-8.4e-07,0.0,0 STARLINK-5615,1 55425U 23014AL  23304.83684776 -.00000084  00000-0  77538-6 0  9991,2 55425  69.9993  92.4903 0003098 271.8368  88.2436 14.98334608 42766,6950.179,96.107,574.197,569.89,0.0
55425.0,STARLINK-5615,PAYLOAD,2023-11-01 12:06:24,14.98321789,0.000293,70.0003,90.8088,271.3198,88.7625,8.7408e-05,9.5e-06,0.0,0 STARLINK-5615,1 55425U 23014AL  23305.50445408  .00000950  00000-0  87408-4 0  9999,2 55425  70.0003  90.8088 0002930 271.3198  88.7625 14.98321789 41925,6950.218,96.108,574.12,570.047,0.0
55425.0,STARLINK-5615,PAYLOAD,2023-11-01 13:42:32,14.98323667,0.0002957,69.9997,90.639,272.095,87.987,3.7216e-05,3.51e-06,0.0,0 STARLINK-5615,1 55425U 23014AL  23305.57121452  .00000351  00000-0  37216-4 0  9993,2 55425  69.9997  90.6390 0002957 272.0950  87.9870 14.98323667 42876,6950.212,96.107,574.133,570.022,0.0
55425.0,STARLINK-5615,PAYLOAD,2023-11-01 20:07:04,14.98328488,0.0003003,69.9998,89.9654,273.3256,86.7559,3.4795e-05,3.22e-06,0.0,0 STARLINK-5615,1 55425U 23014AL  23305.83825198  .00000322  00000-0  34795-4 0  9997,2 55425  69.9998  89.9654 0003003 273.3256  86.7559 14.98328488 42919,6950.198,96.107,574.15,569.975,0.0
55425.0,STARLINK-5615,PAYLOAD,2023-11-02 12:08:25,14.98331442,0.0002956,69.9999,88.2824,272.632,87.4501,-1.2323e-05,-2.4e-06,0.0,0 STARLINK-5615,1 55425U 23014AL  23306.50585187 -.00000240  00000-0 -12323-4 0  9997,2 55425  69.9999  88.2824 0002956 272.6320  87.4501 14.98331442 42077,6950.188,96.107,574.108,569.999,0.0
